AEROCUBE 5C             
1 40965U 15058B   26068.71197411  .00004804  00000+0  42791-3 0  9997
2 40965  64.7674 211.9094 0130672 102.4860 259.0908 14.90857126350820
STARLINK-1552           
1 46076U 20055BB  26068.31515402 -.00000222  00000+0  39571-5 0  9994
2 46076  53.0548  98.3005 0001182  77.5639 282.5483 15.06392702309238
